KUIPER-00035            
1 63748U 25088AA  25200.91668981 -.00003070  00000+0 -15112-3 0  9992
2 63748  51.8791  66.9889 0004074  64.5336 125.3829 15.13837229  5487
KUIPER-00037            
1 63749U 25088AB  25200.91668981 -.00008687  00000+0 -44252-3 0  9999
2 63749  51.8840  66.4420 0003093 349.8738  49.7378 15.15086134  5339
KUIPER-00038            
1 63750U 25088AC  25200.05576331  .00013656  00000+0  37434-3 0  9997
2 63750  51.8700  66.1456 0004805  50.2142 309.9268 15.37576907 12711
KUIPER-00039            
1 64500U 25134A   25200.30474672  .00016814  00000+0  50047-3 0  9990
2 64500  51.8667 206.4679 0007441 205.9221 154.1392 15.34803298  5217
KUIPER-00040            
1 64501U 25134B   25200.91668981 -.01019880  00000+0 -35937-1 0  9994
2 64501  51.8656 203.7373 0011295 221.7885 178.8600 15.31336940  4172
KUIPER-00041            
1 64502U 25134C   25200.91668981 -.01265937  00000+0 -49545-1 0  9991
2 64502  51.8699 203.7371 0009054 217.3877 165.8722 15.28143881  1950
KUIPER-00042            
1 64503U 25134D   25200.30980948  .00010425  00000+0  31752-3 0  9995
2 64503  51.8641 206.4972 0008636 207.2235 152.8299 15.34524966  5218
KUIPER-00043            
1 64504U 25134E   25200.43624843  .00021891  00000+0  64941-3 0  9994
2 64504  51.8684 205.8533 0007942 202.1456 157.9187 15.34721343  5232
